start=new Date('2022-07-18T00:00:00.000Z').valueOf();
sats=[{"TLE_LINE1":"1 47382U 21005AK  22198.41140395  .00000148  00000-0  28844-4 0  9994","MEAN_MOTION":"15.06397198","ELEMENT_SET_NO":"999","COUNTRY_CODE":"US","OBJECT_TYPE":"PAYLOAD","APOAPSIS":"548.239","NORAD_CAT_ID":"47382","OBJECT_ID":"2021-005AK","LAUNCH_DATE":"2021-01-20","ECCENTRICITY":"0.00014680","GP_ID":"208308829","BSTAR":"0.00002884400000","RA_OF_ASC_NODE":"247.9694","SEMIMAJOR_AXIS":"6925.357","ARG_OF_PERICENTER":"73.6440","MEAN_MOTION_DDOT":"0.0000000000000","MEAN_MOTION_DOT":"0.00000148","DECAY_DATE":null,"MEAN_ANOMALY":"286.4711","OBJECT_NAME":"STARLINK-2102","FILE":"3516162","TIME_SYSTEM":"UTC","RCS_SIZE":"LARGE","REV_AT_EPOCH":"8280","TLE_LINE2":"2 47382  53.0535 247.9694 0001468  73.6440 286.4711 15.06397198 82807","PERIOD":"95.592","CENTER_NAME":"EARTH","SITE":"AFETR","INCLINATION":"53.0535","MEAN_ELEMENT_THEORY":"SGP4","EPOCH":"2022-07-17T09:52:25.301280","REF_FRAME":"TEME","EPHEMERIS_TYPE":"0","CLASSIFICATION_TYPE":"U","PERIAPSIS":"546.206"},{"MEAN_MOTION_DOT":"0.00001717","MEAN_MOTION_DDOT":"0.0000000000000","DECAY_DATE":null,"MEAN_ANOMALY":"302.2587","OBJECT_NAME":"STARLINK-2103","SEMIMAJOR_AXIS":"6925.333","ARG_OF_PERICENTER":"57.8543","EPOCH":"2022-07-17T19:52:09.666624","EPHEMERIS_TYPE":"0","REF_FRAME":"TEME","PERIAPSIS":"546.190","CLASSIFICATION_TYPE":"U","MEAN_ELEMENT_THEORY":"SGP4","REV_AT_EPOCH":"8301","TLE_LINE2":"2 47383  53.0515 236.1000 0001455  57.8543 302.2587 15.06405187 83011","PERIOD":"95.592","CENTER_NAME":"EARTH","SITE":"AFETR","INCLINATION":"53.0515","FILE":"3516387","RCS_SIZE":"LARGE","TIME_SYSTEM":"UTC","OBJECT_TYPE":"PAYLOAD","COUNTRY_CODE":"US","TLE_LINE1":"1 47383U 21005AL  22198.82788966  .00001717  00000-0  13409-3 0  9995","MEAN_MOTION":"15.06405187","ELEMENT_SET_NO":"999","RA_OF_ASC_NODE":"236.1000","GP_ID":"208338465","BSTAR":"0.00013409000000","OBJECT_ID":"2021-005AL","LAUNCH_DATE":"2021-01-20","ECCENTRICITY":"0.00014550","APOAPSIS":"548.205","NORAD_CAT_ID":"47383"},{"MEAN_ELEMENT_THEORY":"SGP4","EPHEMERIS_TYPE":"0","REF_FRAME":"TEME","EPOCH":"2022-07-17T20:40:00.983136","PERIAPSIS":"546.163","CLASSIFICATION_TYPE":"U","RCS_SIZE":"LARGE","TIME_SYSTEM":"UTC","FILE":"3516387","TLE_LINE2":"2 47384  53.0514 246.1812 0001479  63.3184 296.7956 15.06408532 82879","REV_AT_EPOCH":"8287","INCLINATION":"53.0514","SITE":"AFETR","CENTER_NAME":"EARTH","PERIOD":"95.592","ARG_OF_PERICENTER":"63.3184","SEMIMAJOR_AXIS":"6925.322","DECAY_DATE":null,"MEAN_MOTION_DDOT":"0.0000000000000","MEAN_MOTION_DOT":"0.00008229","OBJECT_NAME":"STARLINK-2104","MEAN_ANOMALY":"296.7956","BSTAR":"0.00057057000000","GP_ID":"208337723","RA_OF_ASC_NODE":"246.1812","APOAPSIS":"548.212","NORAD_CAT_ID":"47384","LAUNCH_DATE":"2021-01-20","OBJECT_ID":"2021-005AM","ECCENTRICITY":"0.00014790","COUNTRY_CODE":"US","OBJECT_TYPE":"PAYLOAD","MEAN_MOTION":"15.06408532","TLE_LINE1":"1 47384U 21005AM  22198.86112249  .00008229  00000-0  57057-3 0  9997","ELEMENT_SET_NO":"999"},{"COUNTRY_CODE":"US","OBJECT_TYPE":"PAYLOAD","ELEMENT_SET_NO":"999","MEAN_MOTION":"15.06414638","TLE_LINE1":"1 47385U 21005AN  22198.85740339  .00006737  00000-0  47053-3 0  9991","GP_ID":"208337973","BSTAR":"0.00047053000000","RA_OF_ASC_NODE":"245.9653","NORAD_CAT_ID":"47385","APOAPSIS":"548.193","ECCENTRICITY":"0.00014790","LAUNCH_DATE":"2021-01-20","OBJECT_ID":"2021-005AN","ARG_OF_PERICENTER":"64.4787","SEMIMAJOR_AXIS":"6925.304","OBJECT_NAME":"STARLINK-2105","MEAN_ANOMALY":"295.6354","DECAY_DATE":null,"MEAN_MOTION_DDOT":"0.0000000000000","MEAN_MOTION_DOT":"0.00006737","MEAN_ELEMENT_THEORY":"SGP4","PERIAPSIS":"546.144","CLASSIFICATION_TYPE":"U","REF_FRAME":"TEME","EPHEMERIS_TYPE":"0","EPOCH":"2022-07-17T20:34:39.652896","RCS_SIZE":"LARGE","TIME_SYSTEM":"UTC","FILE":"3516387","SITE":"AFETR","INCLINATION":"53.0511","CENTER_NAME":"EARTH","PERIOD":"95.591","TLE_LINE2":"2 47385  53.0511 245.9653 0001479  64.4787 295.6354 15.06414638 82872","REV_AT_EPOCH":"8287"},{"ARG_OF_PERICENTER":"61.1204","SEMIMAJOR_AXIS":"6925.352","OBJECT_NAME":"STARLINK-2106","MEAN_ANOMALY":"298.9951","DECAY_DATE":null,"MEAN_MOTION_DDOT":"0.0000000000000","MEAN_MOTION_DOT":"-0.00000440","MEAN_ELEMENT_THEORY":"SGP4","CLASSIFICATION_TYPE":"U","PERIAPSIS":"546.070","EPHEMERIS_TYPE":"0","REF_FRAME":"TEME","EPOCH":"2022-07-17T19:41:34.538496","TIME_SYSTEM":"UTC","RCS_SIZE":"LARGE","FILE":"3516387","SITE":"AFETR","INCLINATION":"53.0529","PERIOD":"95.592","CENTER_NAME":"EARTH","TLE_LINE2":"2 47386  53.0529 246.1275 0001655  61.1204 298.9951 15.06399033 82879","REV_AT_EPOCH":"8287","COUNTRY_CODE":"US","OBJECT_TYPE":"PAYLOAD","ELEMENT_SET_NO":"999","MEAN_MOTION":"15.06399033","TLE_LINE1":"1 47386U 21005AP  22198.82053864 -.00000440  00000-0 -10621-4 0  9998","BSTAR":"-0.00001062100000","GP_ID":"208338723","RA_OF_ASC_NODE":"246.1275","NORAD_CAT_ID":"47386","APOAPSIS":"548.363","ECCENTRICITY":"0.00016550","LAUNCH_DATE":"2021-01-20","OBJECT_ID":"2021-005AP"},{"TLE_LINE1":"1 47387U 21005AQ  22198.60767172 -.00000952  00000-0 -45031-4 0  9990","MEAN_MOTION":"15.06401304","ELEMENT_SET_NO":"999","OBJECT_TYPE":"PAYLOAD","COUNTRY_CODE":"US","OBJECT_ID":"2021-005AQ","LAUNCH_DATE":"2021-01-20","ECCENTRICITY":"0.00012030","APOAPSIS":"548.043","NORAD_CAT_ID":"47387","RA_OF_ASC_NODE":"277.0790","BSTAR":"-0.00004503100000","GP_ID":"208338965","MEAN_MOTION_DDOT":"0.0000000000000","MEAN_MOTION_DOT":"-0.00000952","DECAY_DATE":null,"MEAN_ANOMALY":"273.0922","OBJECT_NAME":"STARLINK-2108","SEMIMAJOR_AXIS":"6925.345","ARG_OF_PERICENTER":"87.0205","REV_AT_EPOCH":"8241","TLE_LINE2":"2 47387  53.0533 277.0790 0001203  87.0205 273.0922 15.06401304 82414","CENTER_NAME":"EARTH","PERIOD":"95.592","INCLINATION":"53.0533","SITE":"AFETR","FILE":"3516387","RCS_SIZE":"LARGE","TIME_SYSTEM":"UTC","EPOCH":"2022-07-17T14:35:02.836608","EPHEMERIS_TYPE":"0","REF_FRAME":"TEME","CLASSIFICATION_TYPE":"U","PERIAPSIS":"546.376","MEAN_ELEMENT_THEORY":"SGP4"},{"ARG_OF_PERICENTER":"70.3530","SEMIMAJOR_AXIS":"6925.315","OBJECT_NAME":"STARLINK-2109","MEAN_ANOMALY":"289.7620","DECAY_DATE":null,"MEAN_MOTION_DOT":"0.00006971","MEAN_MOTION_DDOT":"0.0000000000000","MEAN_ELEMENT_THEORY":"SGP4","PERIAPSIS":"546.142","CLASSIFICATION_TYPE":"U","REF_FRAME":"TEME","EPHEMERIS_TYPE":"0","EPOCH":"2022-07-17T11:45:12.104352","RCS_SIZE":"LARGE","TIME_SYSTEM":"UTC","FILE":"3515999","INCLINATION":"53.0528","SITE":"AFETR","CENTER_NAME":"EARTH","PERIOD":"95.591","TLE_LINE2":"2 47388  53.0528 277.6077 0001498  70.3530 289.7620 15.06411025 83359","REV_AT_EPOCH":"8335","COUNTRY_CODE":"US","OBJECT_TYPE":"PAYLOAD","ELEMENT_SET_NO":"999","MEAN_MOTION":"15.06411025","TLE_LINE1":"1 47388U 21005AR  22198.48972343  .00006971  00000-0  48626-3 0  9992","BSTAR":"0.00048626000000","GP_ID":"208282303","RA_OF_ASC_NODE":"277.6077","NORAD_CAT_ID":"47388","APOAPSIS":"548.217","ECCENTRICITY":"0.00014980","LAUNCH_DATE":"2021-01-20","OBJECT_ID":"2021-005AR"},{"DECAY_DATE":null,"MEAN_MOTION_DDOT":"0.0000000000000","MEAN_MOTION_DOT":"-0.00001059","OBJECT_NAME":"STARLINK-2110","MEAN_ANOMALY":"308.4479","ARG_OF_PERICENTER":"51.6672","SEMIMAJOR_AXIS":"6925.362","TLE_LINE2":"2 47389  53.0536 255.9142 0001802  51.6672 308.4479 15.06395493 82731","REV_AT_EPOCH":"8273","INCLINATION":"53.0536","SITE":"AFETR","PERIOD":"95.592","CENTER_NAME":"EARTH","TIME_SYSTEM":"UTC","RCS_SIZE":"LARGE","FILE":"3516387","REF_FRAME":"TEME","EPHEMERIS_TYPE":"0","EPOCH":"2022-07-17T20:47:53.430432","CLASSIFICATION_TYPE":"U","PERIAPSIS":"545.979","MEAN_ELEMENT_THEORY":"SGP4","MEAN_MOTION":"15.06395493","TLE_LINE1":"1 47389U 21005AS  22198.86659063 -.00001059  00000-0 -52221-4 0  9997","ELEMENT_SET_NO":"999","OBJECT_TYPE":"PAYLOAD","COUNTRY_CODE":"US","LAUNCH_DATE":"2021-01-20","OBJECT_ID":"2021-005AS","ECCENTRICITY":"0.00018020","APOAPSIS":"548.475","NORAD_CAT_ID":"47389","RA_OF_ASC_NODE":"255.9142","BSTAR":"-0.00005222100000","GP_ID":"208337474"},{"OBJECT_TYPE":"PAYLOAD","COUNTRY_CODE":"US","ELEMENT_SET_NO":"999","TLE_LINE1":"1 47390U 21005AT  22198.53027036 -.00001141  00000-0 -57746-4 0  9991","MEAN_MOTION":"15.06398029","RA_OF_ASC_NODE":"277.4357","GP_ID":"208338224","BSTAR":"-0.00005774600000","ECCENTRICITY":"0.00013440","OBJECT_ID":"2021-005AT","LAUNCH_DATE":"2021-01-20","NORAD_CAT_ID":"47390","APOAPSIS":"548.150","MEAN_ANOMALY":"288.7445","OBJECT_NAME":"STARLINK-2111","MEAN_MOTION_DDOT":"0.0000000000000","MEAN_MOTION_DOT":"-0.00001141","DECAY_DATE":null,"SEMIMAJOR_AXIS":"6925.355","ARG_OF_PERICENTER":"71.3689","CLASSIFICATION_TYPE":"U","PERIAPSIS":"546.289","EPOCH":"2022-07-17T12:43:35.359104","REF_FRAME":"TEME","EPHEMERIS_TYPE":"0","MEAN_ELEMENT_THEORY":"SGP4","CENTER_NAME":"EARTH","PERIOD":"95.592","INCLINATION":"53.0536","SITE":"AFETR","REV_AT_EPOCH":"8240","TLE_LINE2":"2 47390  53.0536 277.4357 0001344  71.3689 288.7445 15.06398029 82403","FILE":"3516387","RCS_SIZE":"LARGE","TIME_SYSTEM":"UTC"},{"REF_FRAME":"TEME","EPHEMERIS_TYPE":"0","EPOCH":"2022-07-17T20:54:32.549184","CLASSIFICATION_TYPE":"U","PERIAPSIS":"546.128","MEAN_ELEMENT_THEORY":"SGP4","TLE_LINE2":"2 47391  53.0532 245.9048 0001589  61.9266 298.1884 15.06395129 82875","REV_AT_EPOCH":"8287","SITE":"AFETR","INCLINATION":"53.0532","CENTER_NAME":"EARTH","PERIOD":"95.592","RCS_SIZE":"LARGE","TIME_SYSTEM":"UTC","FILE":"3516387","DECAY_DATE":null,"MEAN_MOTION_DOT":"0.00001396","MEAN_MOTION_DDOT":"0.0000000000000","OBJECT_NAME":"STARLINK-2112","MEAN_ANOMALY":"298.1884","ARG_OF_PERICENTER":"61.9266","SEMIMAJOR_AXIS":"6925.363","RA_OF_ASC_NODE":"245.9048","BSTAR":"0.00011263000000","GP_ID":"208338466","LAUNCH_DATE":"2021-01-20","OBJECT_ID":"2021-005AU","ECCENTRICITY":"0.00015890","APOAPSIS":"548.329","NORAD_CAT_ID":"47391","OBJECT_TYPE":"PAYLOAD","COUNTRY_CODE":"US","MEAN_MOTION":"15.06395129","TLE_LINE1":"1 47391U 21005AU  22198.87121006  .00001396  00000-0  11263-3 0  9994","ELEMENT_SET_NO":"999"}];
